NORAD_CAT_ID,OBJECT_NAME,OBJECT_TYPE,EPOCH,MEAN_MOTION,ECCENTRICITY,INCLINATION,RA_OF_ASC_NODE,ARG_OF_PERICENTER,MEAN_ANOMALY,BSTAR,MEAN_MOTION_DOT,MEAN_MOTION_DDOT,TLE_LINE0,TLE_LINE1,TLE_LINE2,SEMIMAJOR_AXIS,PERIOD,APOGEE,PERIGEE,DECAYED
53618.0,STARLINK-4604,PAYLOAD,2023-07-24 06:02:19,15.08840158,5.06e-05,53.217,221.1219,55.0601,305.0438,3.74e-05,3.08e-06,0.0,0 STARLINK-4604,1 53618U 22104AG  23205.25161683  .00000308  00000-0  37400-4 0  9995,2 53618  53.2170 221.1219 0000506  55.0601 305.0438 15.08840158 50210,6917.88,95.438,540.095,539.395,0.0
53618.0,STARLINK-4604,PAYLOAD,2023-07-25 10:39:16,15.08841183,0.0001141,53.2156,215.769,83.9966,276.1156,1.1029e-05,-1.12e-06,0.0,0 STARLINK-4604,1 53618U 22104AG  23206.44393733 -.00000112  00000-0  11029-4 0  9993,2 53618  53.2156 215.7690 0001141  83.9966 276.1156 15.08841183 50399,6917.877,95.437,540.531,538.952,0.0
53618.0,STARLINK-4604,PAYLOAD,2023-07-26 00:57:44,15.08839741,7.96e-05,53.215,213.0921,47.8089,312.2971,3.9528e-05,3.41e-06,0.0,0 STARLINK-4604,1 53618U 22104AG  23207.04009717  .00000341  00000-0  39528-4 0  9993,2 53618  53.2150 213.0921 0000796  47.8089 312.2971 15.08839741 50485,6917.881,95.438,540.297,539.196,0.0
53618.0,STARLINK-4604,PAYLOAD,2023-07-26 20:02:22,15.08837482,0.0001157,53.2155,209.5237,88.426,271.6864,6.1017e-05,6.83e-06,0.0,0 STARLINK-4604,1 53618U 22104AG  23207.83497947  .00000683  00000-0  61017-4 0  9993,2 53618  53.2155 209.5237 0001157  88.4260 271.6864 15.08837482 50607,6917.888,95.438,540.553,538.953,0.0
53618.0,STARLINK-4604,PAYLOAD,2023-07-27 00:48:31,15.08837689,0.0001157,53.2155,208.6315,88.2719,271.8405,5.9096e-05,6.53e-06,0.0,0 STARLINK-4604,1 53618U 22104AG  23208.03369968  .00000653  00000-0  59096-4 0  9998,2 53618  53.2155 208.6315 0001157  88.2719 271.8405 15.08837689 50636,6917.887,95.438,540.553,538.952,0.0
53618.0,STARLINK-4604,PAYLOAD,2023-07-27 07:10:04,15.08839569,0.000116,53.2155,207.4423,87.1673,272.9452,6.846e-05,8.02e-06,0.0,0 STARLINK-4604,1 53618U 22104AG  23208.29865864  .00000802  00000-0  68460-4 0  9993,2 53618  53.2155 207.4423 0001160  87.1673 272.9452 15.08839569 50671,6917.882,95.438,540.549,538.944,0.0
53618.0,STARLINK-4604,PAYLOAD,2023-07-28 08:36:14,15.08834462,0.0001249,53.2166,202.6871,97.2565,262.8569,1.405e-05,-6.4e-07,0.0,0 STARLINK-4604,1 53618U 22104AG  23209.35850596 -.00000064  00000-0  14050-4 0  9994,2 53618  53.2166 202.6871 0001249  97.2565 262.8569 15.08834462 50839,6917.897,95.438,540.626,538.898,0.0
53618.0,STARLINK-4604,PAYLOAD,2023-07-29 22:45:30,15.08838315,0.000118,53.2166,195.5492,90.6912,269.4215,7.7593e-05,9.47e-06,0.0,0 STARLINK-4604,1 53618U 22104AG  23210.94826445  .00000947  00000-0  77593-4 0  9997,2 53618  53.2166 195.5492 0001180  90.6912 269.4215 15.08838315 51074,6917.886,95.438,540.567,538.934,0.0
53618.0,STARLINK-4604,PAYLOAD,2023-07-31 08:08:35,15.0884063,0.0001253,53.2163,189.3032,86.9795,273.1341,4.2079e-05,3.82e-06,0.0,0 STARLINK-4604,1 53618U 22104AG  23212.33930525  .00000382  00000-0  42079-4 0  9991,2 53618  53.2163 189.3032 0001253  86.9795 273.1341 15.08840630 51288,6917.878,95.438,540.61,538.877,0.0
53618.0,STARLINK-4604,PAYLOAD,2023-08-02 01:28:38,15.0883273,0.0001311,53.2162,181.5709,91.7036,268.4106,-5.0228e-06,-3.68e-06,0.0,0 STARLINK-4604,1 53618U 22104AG  23214.06155181 -.00000368  00000-0 -50228-5 0  9992,2 53618  53.2162 181.5709 0001311  91.7036 268.4106 15.08832730 51546,6917.903,95.438,540.675,538.861,0.0
53618.0,STARLINK-4604,PAYLOAD,2023-08-02 07:50:11,15.08794445,0.0001494,53.2171,180.381,93.8412,266.2751,0.00056151,8.649e-05,0.0,0 STARLINK-4604,1 53618U 22104AG  23214.32652284  .00008649  00000-0  56151-3 0  9994,2 53618  53.2171 180.3810 0001494  93.8412 266.2751 15.08794445 51585,6918.02,95.44,540.918,538.851,0.0
53618.0,STARLINK-4604,PAYLOAD,2023-08-03 02:54:48,15.08838088,0.0001266,53.2164,176.8138,93.1058,267.0079,1.7095e-05,-1.6e-07,0.0,0 STARLINK-4604,1 53618U 22104AG  23215.12139066 -.00000016  00000-0  17095-4 0  9997,2 53618  53.2164 176.8138 0001266  93.1058 267.0079 15.08838088 51704,6917.886,95.438,540.627,538.875,0.0
53618.0,STARLINK-4604,PAYLOAD,2023-08-04 07:31:44,15.08838471,0.0001191,53.2169,171.4638,95.1538,264.959,5.5414e-05,5.94e-06,0.0,0 STARLINK-4604,1 53618U 22104AG  23216.31371432  .00000594  00000-0  55414-4 0  9991,2 53618  53.2169 171.4638 0001191  95.1538 264.9590 15.08838471 51886,6917.885,95.438,540.574,538.926,0.0
53618.0,STARLINK-4604,PAYLOAD,2023-08-06 04:02:31,15.08851687,0.0001196,53.2169,163.1378,87.209,272.9039,0.00013137,1.804e-05,0.0,0 STARLINK-4604,1 53618U 22104AG  23218.16842423  .00001804  00000-0  13137-3 0  9999,2 53618  53.2169 163.1378 0001196  87.2090 272.9039 15.08851687 52168,6917.845,95.437,540.537,538.882,0.0
53618.0,STARLINK-4604,PAYLOAD,2023-08-06 13:34:52,15.0883132,0.0001678,53.217,161.3514,83.6766,276.4417,-4.2479e-05,-9.64e-06,0.0,0 STARLINK-4604,1 53618U 22104AG  23218.56588261 -.00000964  00000-0 -42479-4 0  9990,2 53618  53.2170 161.3514 0001678  83.6766 276.4417 15.08831320 52225,6917.907,95.438,540.933,538.611,0.0
53618.0,STARLINK-4604,PAYLOAD,2023-08-07 02:17:58,15.08825755,0.0001123,53.217,158.9723,78.792,281.3198,-0.00012392,-2.259e-05,0.0,0 STARLINK-4604,1 53618U 22104AG  23219.09581133 -.00002259  00000-0 -12392-3 0  9999,2 53618  53.2170 158.9723 0001123  78.7920 281.3198 15.08825755 52306,6917.924,95.438,540.566,539.012,0.0
53618.0,STARLINK-4604,PAYLOAD,2023-08-07 19:47:11,15.08847447,0.0001165,53.217,155.7026,78.1556,281.9567,-9.7991e-07,-3.03e-06,0.0,0 STARLINK-4604,1 53618U 22104AG  23219.82443730 -.00000303  00000-0 -97991-6 0  9999,2 53618  53.2170 155.7026 0001165  78.1556 281.9567 15.08847447 52412,6917.858,95.437,540.529,538.917,0.0
53618.0,STARLINK-4604,PAYLOAD,2023-08-08 02:08:43,15.08855801,0.0001178,53.2162,154.5137,75.3399,284.7724,8.4707e-05,1.061e-05,0.0,0 STARLINK-4604,1 53618U 22104AG  23220.08938873  .00001061  00000-0  84707-4 0  9995,2 53618  53.2162 154.5137 0001178  75.3399 284.7724 15.08855801 52454,6917.832,95.437,540.512,538.882,0.0
53618.0,STARLINK-4604,PAYLOAD,2023-08-08 13:16:25,15.08850759,0.0001271,53.2159,152.4313,81.4132,278.7004,0.00022034,3.222e-05,0.0,0 STARLINK-4604,1 53618U 22104AG  23220.55307387  .00003222  00000-0  22034-3 0  9992,2 53618  53.2159 152.4313 0001271  81.4132 278.7004 15.08850759 52529,6917.848,95.437,540.592,538.833,0.0
53618.0,STARLINK-4604,PAYLOAD,2023-08-09 05:10:16,15.08849414,7.02e-05,53.2164,149.4582,75.1486,284.9584,0.00023322,3.427e-05,0.0,0 STARLINK-4604,1 53618U 22104AG  23221.21547129  .00003427  00000-0  23322-3 0  9994,2 53618  53.2164 149.4582 0000702  75.1486 284.9584 15.08849414 52628,6917.852,95.437,540.202,539.231,0.0
53618.0,STARLINK-4604,PAYLOAD,2023-08-10 05:01:03,15.08840925,5.73e-05,53.2175,144.9991,51.8821,308.2223,-9.6105e-05,-1.817e-05,0.0,0 STARLINK-4604,1 53618U 22104AG  23222.20907169 -.00001817  00000-0 -96105-4 0  9991,2 53618  53.2175 144.9991 0000573  51.8821 308.2223 15.08840925 52778,6917.878,95.437,540.139,539.346,0.0
53618.0,STARLINK-4604,PAYLOAD,2023-08-11 17:34:57,15.08830992,0.0001597,53.2194,138.1583,87.3191,272.7984,2.8556e-05,1.66e-06,0.0,0 STARLINK-4604,1 53618U 22104AG  23223.73260442  .00000166  00000-0  28556-4 0  9995,2 53618  53.2194 138.1583 0001597  87.3191 272.7984 15.08830992 53001,6917.908,95.438,540.878,538.668,0.0
53618.0,STARLINK-4604,PAYLOAD,2023-08-13 02:58:02,15.08847086,0.000129,53.2182,131.9153,93.3269,266.7871,6.6932e-05,7.78e-06,0.0,0 STARLINK-4604,1 53618U 22104AG  23225.12363685  .00000778  00000-0  66932-4 0  9992,2 53618  53.2182 131.9153 0001290  93.3269 266.7871 15.08847086 53218,6917.859,95.437,540.616,538.831,0.0
53618.0,STARLINK-4604,PAYLOAD,2023-08-14 02:48:49,15.08842748,0.0001241,53.2169,127.4521,89.2917,270.8218,0.00010261,1.346e-05,0.0,0 STARLINK-4604,1 53618U 22104AG  23226.11724049  .00001346  00000-0  10261-3 0  9992,2 53618  53.2169 127.4521 0001241  89.2917 270.8218 15.08842748 53369,6917.872,95.437,540.595,538.878,0.0
53618.0,STARLINK-4604,PAYLOAD,2023-08-14 23:28:50,15.08836187,0.0001275,53.2186,123.585,98.9782,261.1354,7.9039e-05,9.7e-06,0.0,0 STARLINK-4604,1 53618U 22104AG  23226.97836560  .00000970  00000-0  79039-4 0  9999,2 53618  53.2186 123.5850 0001275  98.9782 261.1354 15.08836187 53492,6917.892,95.438,540.639,538.875,0.0
53618.0,STARLINK-4604,PAYLOAD,2023-08-15 23:19:37,15.08851076,0.0001483,53.2185,119.1238,98.5397,261.5763,4.0872e-05,3.63e-06,0.0,0 STARLINK-4604,1 53618U 22104AG  23227.97195832  .00000363  00000-0  40872-4 0  9999,2 53618  53.2185 119.1238 0001483  98.5397 261.5763 15.08851076 53640,6917.847,95.437,540.737,538.686,0.0
53618.0,STARLINK-4604,PAYLOAD,2023-08-16 16:48:52,15.08833614,8.19e-05,53.2181,115.855,60.9564,299.151,-4.8419e-06,-3.65e-06,0.0,0 STARLINK-4604,1 53618U 22104AG  23228.70061144 -.00000365  00000-0 -48419-5 0  9999,2 53618  53.2181 115.8550 0000819  60.9564 299.1510 15.08833614 53754,6917.9,95.438,540.331,539.198,0.0
53618.0,STARLINK-4604,PAYLOAD,2023-08-16 23:10:24,15.08842017,0.0001283,53.217,114.6677,86.93,273.1839,4.5172e-05,4.31e-06,0.0,0 STARLINK-4604,1 53618U 22104AG  23228.96556466  .00000431  00000-0  45172-4 0  9997,2 53618  53.2170 114.6677 0001283  86.9300 273.1839 15.08842017 53798,6917.874,95.437,540.627,538.852,0.0
53618.0,STARLINK-4604,PAYLOAD,2023-08-18 00:36:34,15.08844616,0.0001454,53.217,109.911,89.0072,271.1087,9.8362e-05,1.278e-05,0.0,0 STARLINK-4604,1 53618U 22104AG  23230.02540105  .00001278  00000-0  98362-4 0  9999,2 53618  53.2170 109.9110 0001454  89.0072 271.1087 15.08844616 53955,6917.866,95.437,540.737,538.725,0.0
53618.0,STARLINK-4604,PAYLOAD,2023-08-18 16:30:26,15.08830589,0.0001337,53.2186,106.9382,87.7679,272.3466,7.0979e-05,8.42e-06,0.0,0 STARLINK-4604,1 53618U 22104AG  23230.68781199  .00000842  00000-0  70979-4 0  9991,2 53618  53.2186 106.9382 0001337  87.7679 272.3466 15.08830589 54058,6917.909,95.438,540.699,538.849,0.0
